STARLINK-31509          
1 59533U 24073Y   26059.22490348 -.00001512  00000+0 -45475-4 0  9994
2 59533  43.0020  11.8666 0000660 272.7690  87.3086 15.27568822104721
STARLINK-31734          
1 59534U 24074A   26059.23071366  .00000666  00000+0  33737-4 0  9997
2 59534  43.0073  26.0478 0001437 271.7593  88.3094 15.27586203104692
STARLINK-31738          
1 59535U 24074B   26059.24773002 -.00000494  00000+0 -84420-5 0  9992
2 59535  43.0039  33.0180 0000943 260.1666  99.9079 15.27571983104619
STARLINK-31721          
1 59536U 24074C   26058.66133745  .00012402  00000+0  46018-3 0  9991
2 59536  43.0061  39.9034 0001971 295.8457  64.2192 15.27527866104480
STARLINK-31737          
1 59537U 24074D   26059.19857253  .00000668  00000+0  33796-4 0  9999
2 59537  43.0056  37.0505 0001305 217.3405 142.7356 15.27580629104569
STARLINK-31725          
1 59538U 24074E   26059.25002315  .00287831  00000+0  47307-2 0  9998
2 59538  42.9981  20.3183 0010274 178.7045 343.8298 15.50557380  5830
STARLINK-31539          
1 59539U 24074F   26059.27550778  .00002656  00000+0  10591-3 0  9998
2 59539  43.0033  36.7652 0001296 258.0198 102.0509 15.27609479104570
STARLINK-31397          
1 59540U 24074G   26059.28966538 -.00000760  00000+0 -18122-4 0  9991
2 59540  43.0008  36.8767 0000953 268.4363  91.6379 15.27572369104575
STARLINK-31481          
1 59541U 24074H   26059.23567900  .00001552  00000+0  65916-4 0  9998
2 59541  43.0025  36.4698 0001136 273.3125  86.7597 15.27570703104576
STARLINK-31540          
1 59542U 24074J   26059.25368478 -.00000090  00000+0  62654-5 0  9994
2 59542  43.0052  36.6069 0001230 289.2703  70.8015 15.27564722104577
STARLINK-31574          
1 59543U 24074K   26059.21399348 -.00001433  00000+0 -42559-4 0  9995
2 59543  43.0017  37.1646 0001602 271.7927  88.2741 15.27579933104561
STARLINK-31556          
1 59544U 24074L   26059.28194463  .00000774  00000+0  37641-4 0  9995
2 59544  43.0013  36.8176 0001267 268.4175  91.6531 15.27585197104572
STARLINK-31582          
1 59545U 24074M   26059.29350841 -.00004233  00000+0 -14432-3 0  9999
2 59545  43.0031  36.9024 0001278 281.7550  78.3158 15.27591199104579
STARLINK-31519          
1 59546U 24074N   26059.24211190  .00002042  00000+0  83689-4 0  9993
2 59546  43.0036  36.5180 0000934 259.8192 100.2555 15.27581545104570
STARLINK-31736          
1 59547U 24074P   26059.26749249  .00000355  00000+0  22438-4 0  9997
2 59547  43.0008  29.7789 0001195 277.8734  82.1982 15.27579169104651
STARLINK-31675          
1 59548U 24074Q   26058.99599317 -.00000493  00000+0 -84051-5 0  9991
2 59548  43.0057  38.1083 0001369 272.2098  87.8597 15.27572773104537
