[{"OBJECT_NAME":"STARLINK-31509","OBJECT_ID":"2024-073Y","EPOCH":"2026-02-28T05:23:51.660672","MEAN_MOTION":15.27568822,"ECCENTRICITY":6.609e-5,"INCLINATION":43.002,"RA_OF_ASC_NODE":11.8666,"ARG_OF_PERICENTER":272.769,"MEAN_ANOMALY":87.3086,"EPHEMERIS_TYPE":0,"CLASSIFICATION_TYPE":"U","NORAD_CAT_ID":59533,"ELEMENT_SET_NO":999,"REV_AT_EPOCH":10472,"BSTAR":-4.5475204e-5,"MEAN_MOTION_DOT":-1.512e-5,"MEAN_MOTION_DDOT":0},{"OBJECT_NAME":"STARLINK-31734","OBJECT_ID":"2024-074A","EPOCH":"2026-02-28T05:32:13.660224","MEAN_MOTION":15.27586203,"ECCENTRICITY":0.00014374,"INCLINATION":43.0073,"RA_OF_ASC_NODE":26.0478,"ARG_OF_PERICENTER":271.7593,"MEAN_ANOMALY":88.3094,"EPHEMERIS_TYPE":0,"CLASSIFICATION_TYPE":"U","NORAD_CAT_ID":59534,"ELEMENT_SET_NO":999,"REV_AT_EPOCH":10469,"BSTAR":3.3737401e-5,"MEAN_MOTION_DOT":6.66e-6,"MEAN_MOTION_DDOT":0},{"OBJECT_NAME":"STARLINK-31738","OBJECT_ID":"2024-074B","EPOCH":"2026-02-28T05:56:43.873728","MEAN_MOTION":15.27571983,"ECCENTRICITY":9.433e-5,"INCLINATION":43.0039,"RA_OF_ASC_NODE":33.018,"ARG_OF_PERICENTER":260.1666,"MEAN_ANOMALY":99.9079,"EPHEMERIS_TYPE":0,"CLASSIFICATION_TYPE":"U","NORAD_CAT_ID":59535,"ELEMENT_SET_NO":999,"REV_AT_EPOCH":10461,"BSTAR":-8.442043e-6,"MEAN_MOTION_DOT":-4.94e-6,"MEAN_MOTION_DDOT":0},{"OBJECT_NAME":"STARLINK-31721","OBJECT_ID":"2024-074C","EPOCH":"2026-02-27T15:52:19.555680","MEAN_MOTION":15.27527866,"ECCENTRICITY":0.00019719,"INCLINATION":43.0061,"RA_OF_ASC_NODE":39.9034,"ARG_OF_PERICENTER":295.8457,"MEAN_ANOMALY":64.2192,"EPHEMERIS_TYPE":0,"CLASSIFICATION_TYPE":"U","NORAD_CAT_ID":59536,"ELEMENT_SET_NO":999,"REV_AT_EPOCH":10448,"BSTAR":0.000460181,"MEAN_MOTION_DOT":0.00012402,"MEAN_MOTION_DDOT":0},{"OBJECT_NAME":"STARLINK-31737","OBJECT_ID":"2024-074D","EPOCH":"2026-02-28T04:45:56.666592","MEAN_MOTION":15.27580629,"ECCENTRICITY":0.00013056,"INCLINATION":43.0056,"RA_OF_ASC_NODE":37.0505,"ARG_OF_PERICENTER":217.3405,"MEAN_ANOMALY":142.7356,"EPHEMERIS_TYPE":0,"CLASSIFICATION_TYPE":"U","NORAD_CAT_ID":59537,"ELEMENT_SET_NO":999,"REV_AT_EPOCH":10456,"BSTAR":3.3795616e-5,"MEAN_MOTION_DOT":6.68e-6,"MEAN_MOTION_DDOT":0},{"OBJECT_NAME":"STARLINK-31725","OBJECT_ID":"2024-074E","EPOCH":"2026-02-28T06:00:02.000160","MEAN_MOTION":15.5055738,"ECCENTRICITY":0.0010274,"INCLINATION":42.9981,"RA_OF_ASC_NODE":20.3183,"ARG_OF_PERICENTER":178.7045,"MEAN_ANOMALY":343.8298,"EPHEMERIS_TYPE":0,"CLASSIFICATION_TYPE":"U","NORAD_CAT_ID":59538,"ELEMENT_SET_NO":999,"REV_AT_EPOCH":583,"BSTAR":0.0047306556,"MEAN_MOTION_DOT":0.00287831,"MEAN_MOTION_DDOT":0},{"OBJECT_NAME":"STARLINK-31539","OBJECT_ID":"2024-074F","EPOCH":"2026-02-28T06:36:43.872192","MEAN_MOTION":15.27609479,"ECCENTRICITY":0.00012968,"INCLINATION":43.0033,"RA_OF_ASC_NODE":36.7652,"ARG_OF_PERICENTER":258.0198,"MEAN_ANOMALY":102.0509,"EPHEMERIS_TYPE":0,"CLASSIFICATION_TYPE":"U","NORAD_CAT_ID":59539,"ELEMENT_SET_NO":999,"REV_AT_EPOCH":10457,"BSTAR":0.00010590757,"MEAN_MOTION_DOT":2.656e-5,"MEAN_MOTION_DDOT":0},{"OBJECT_NAME":"STARLINK-31397","OBJECT_ID":"2024-074G","EPOCH":"2026-02-28T06:57:07.088832","MEAN_MOTION":15.27572369,"ECCENTRICITY":9.537e-5,"INCLINATION":43.0008,"RA_OF_ASC_NODE":36.8767,"ARG_OF_PERICENTER":268.4363,"MEAN_ANOMALY":91.6379,"EPHEMERIS_TYPE":0,"CLASSIFICATION_TYPE":"U","NORAD_CAT_ID":59540,"ELEMENT_SET_NO":999,"REV_AT_EPOCH":10457,"BSTAR":-1.8121633e-5,"MEAN_MOTION_DOT":-7.6e-6,"MEAN_MOTION_DDOT":0},{"OBJECT_NAME":"STARLINK-31481","OBJECT_ID":"2024-074H","EPOCH":"2026-02-28T05:39:22.665600","MEAN_MOTION":15.27570703,"ECCENTRICITY":0.00011369,"INCLINATION":43.0025,"RA_OF_ASC_NODE":36.4698,"ARG_OF_PERICENTER":273.3125,"MEAN_ANOMALY":86.7597,"EPHEMERIS_TYPE":0,"CLASSIFICATION_TYPE":"U","NORAD_CAT_ID":59541,"ELEMENT_SET_NO":999,"REV_AT_EPOCH":10457,"BSTAR":6.5915631e-5,"MEAN_MOTION_DOT":1.552e-5,"MEAN_MOTION_DDOT":0},{"OBJECT_NAME":"STARLINK-31540","OBJECT_ID":"2024-074J","EPOCH":"2026-02-28T06:05:18.364992","MEAN_MOTION":15.27564722,"ECCENTRICITY":0.00012308,"INCLINATION":43.0052,"RA_OF_ASC_NODE":36.6069,"ARG_OF_PERICENTER":289.2703,"MEAN_ANOMALY":70.8015,"EPHEMERIS_TYPE":0,"CLASSIFICATION_TYPE":"U","NORAD_CAT_ID":59542,"ELEMENT_SET_NO":999,"REV_AT_EPOCH":10457,"BSTAR":6.265385e-6,"MEAN_MOTION_DOT":-9.0e-7,"MEAN_MOTION_DDOT":0},{"OBJECT_NAME":"STARLINK-31574","OBJECT_ID":"2024-074K","EPOCH":"2026-02-28T05:08:09.036672","MEAN_MOTION":15.27579933,"ECCENTRICITY":0.00016022,"INCLINATION":43.0017,"RA_OF_ASC_NODE":37.1646,"ARG_OF_PERICENTER":271.7927,"MEAN_ANOMALY":88.2741,"EPHEMERIS_TYPE":0,"CLASSIFICATION_TYPE":"U","NORAD_CAT_ID":59543,"ELEMENT_SET_NO":999,"REV_AT_EPOCH":10456,"BSTAR":-4.2559156e-5,"MEAN_MOTION_DOT":-1.433e-5,"MEAN_MOTION_DDOT":0},{"OBJECT_NAME":"STARLINK-31556","OBJECT_ID":"2024-074L","EPOCH":"2026-02-28T06:46:00.016032","MEAN_MOTION":15.27585197,"ECCENTRICITY":0.0001267,"INCLINATION":43.0013,"RA_OF_ASC_NODE":36.8176,"ARG_OF_PERICENTER":268.4175,"MEAN_ANOMALY":91.6531,"EPHEMERIS_TYPE":0,"CLASSIFICATION_TYPE":"U","NORAD_CAT_ID":59544,"ELEMENT_SET_NO":999,"REV_AT_EPOCH":10457,"BSTAR":3.7640615e-5,"MEAN_MOTION_DOT":7.74e-6,"MEAN_MOTION_DDOT":0},{"OBJECT_NAME":"STARLINK-31582","OBJECT_ID":"2024-074M","EPOCH":"2026-02-28T07:02:39.126624","MEAN_MOTION":15.27591199,"ECCENTRICITY":0.00012786,"INCLINATION":43.0031,"RA_OF_ASC_NODE":36.9024,"ARG_OF_PERICENTER":281.755,"MEAN_ANOMALY":78.3158,"EPHEMERIS_TYPE":0,"CLASSIFICATION_TYPE":"U","NORAD_CAT_ID":59545,"ELEMENT_SET_NO":999,"REV_AT_EPOCH":10457,"BSTAR":-0.00014432371,"MEAN_MOTION_DOT":-4.233e-5,"MEAN_MOTION_DDOT":0},{"OBJECT_NAME":"STARLINK-31519","OBJECT_ID":"2024-074N","EPOCH":"2026-02-28T05:48:38.468160","MEAN_MOTION":15.27581545,"ECCENTRICITY":9.348e-5,"INCLINATION":43.0036,"RA_OF_ASC_NODE":36.518,"ARG_OF_PERICENTER":259.8192,"MEAN_ANOMALY":100.2555,"EPHEMERIS_TYPE":0,"CLASSIFICATION_TYPE":"U","NORAD_CAT_ID":59546,"ELEMENT_SET_NO":999,"REV_AT_EPOCH":10457,"BSTAR":8.3689423e-5,"MEAN_MOTION_DOT":2.042e-5,"MEAN_MOTION_DDOT":0},{"OBJECT_NAME":"STARLINK-31736","OBJECT_ID":"2024-074P","EPOCH":"2026-02-28T06:25:11.351136","MEAN_MOTION":15.27579169,"ECCENTRICITY":0.00011951,"INCLINATION":43.0008,"RA_OF_ASC_NODE":29.7789,"ARG_OF_PERICENTER":277.8734,"MEAN_ANOMALY":82.1982,"EPHEMERIS_TYPE":0,"CLASSIFICATION_TYPE":"U","NORAD_CAT_ID":59547,"ELEMENT_SET_NO":999,"REV_AT_EPOCH":10465,"BSTAR":2.2438045e-5,"MEAN_MOTION_DOT":3.55e-6,"MEAN_MOTION_DDOT":0},{"OBJECT_NAME":"STARLINK-31675","OBJECT_ID":"2024-074Q","EPOCH":"2026-02-27T23:54:13.809888","MEAN_MOTION":15.27572773,"ECCENTRICITY":0.00013692,"INCLINATION":43.0057,"RA_OF_ASC_NODE":38.1083,"ARG_OF_PERICENTER":272.2098,"MEAN_ANOMALY":87.8597,"EPHEMERIS_TYPE":0,"CLASSIFICATION_TYPE":"U","NORAD_CAT_ID":59548,"ELEMENT_SET_NO":999,"REV_AT_EPOCH":10453,"BSTAR":-8.405056e-6,"MEAN_MOTION_DOT":-4.93e-6,"MEAN_MOTION_DDOT":0}]
